HTV-X1                  
1 66174U 25241A   26073.34423285  .00013198  00000+0  56794-3 0  9992
2 66174  51.6357  50.7100 0005732 187.3443 172.7451 15.22910005 21660
SZ-21 MODULE            
1 66515U 25246C   26079.19410922  .00026007  00000+0  21818-3 0  9991
2 66515  41.4734 138.6579 0000376 257.1443 102.9357 15.69318212 19723
SHENZHOU-22             
1 66645U 25272A   26080.16783277  .00023019  00000+0  26685-3 0  9996
2 66645  41.4662 138.2900 0005532 345.9903  14.0782 15.61239765279109
SOYUZ-MS 28             
1 66664U 25275A   26080.13034352  .00010852  00000+0  20900-3 0  9995
2 66664  51.6347  15.8024 0006360 214.2471 145.8108 15.48410073557717
DUPLEX                  
1 66906U 98067XS  26080.20637110  .00034213  00000+0  47109-3 0  9999
2 66906  51.6308  11.8143 0003053 161.6890 198.4212 15.56911891 16923
ISS OBJECT XT           
1 66907U 98067XT  26080.03159806  .00186272  00000+0  13142-2 0  9994
2 66907  51.6258   7.6205 0005284 153.4746 206.6524 15.72936378 16964
ISS OBJECT XU           
1 66908U 98067XU  26080.02880812  .00200572  00000+0  14030-2 0  9999
2 66908  51.6252   7.5980 0005511 153.1323 206.9962 15.73089438 16965
SILVERSAT               
1 66909U 98067XV  26080.06872979  .00263566  00000+0  15349-2 0  9995
2 66909  51.6232   6.3577 0005986 158.2287 201.8969 15.77111362 16983
ISS OBJECT XW           
1 66910U 98067XW  26080.03258213  .00172990  00000+0  12769-2 0  9996
2 66910  51.6252   7.6193 0005851 154.3698 205.7591 15.71910553 16964
ISS OBJECT XX           
1 66911U 98067XX  26079.78497680  .00328635  00000+0  15489-2 0  9991
2 66911  51.6214   6.6859 0007614 159.8268 200.3037 15.81589950 16941
ISS OBJECT XY           
1 66912U 98067XY  26080.07693278  .00108025  00000+0  10352-2 0  9990
2 66912  51.6284   9.4400 0003868 157.4966 202.6200 15.65811465 16935
KNACKSAT-2              
1 67683U 98067XZ  26080.12244736  .00041608  00000+0  66460-3 0  9998
2 67683  51.6324  15.0021 0009725 226.4842 133.5341 15.52710804  6563
